NORAD_CAT_ID,OBJECT_NAME,OBJECT_TYPE,EPOCH,MEAN_MOTION,ECCENTRICITY,INCLINATION,RA_OF_ASC_NODE,ARG_OF_PERICENTER,MEAN_ANOMALY,BSTAR,MEAN_MOTION_DOT,MEAN_MOTION_DDOT,TLE_LINE0,TLE_LINE1,TLE_LINE2,SEMIMAJOR_AXIS,PERIOD,APOGEE,PERIGEE,DECAYED
50846.0,STARLINK-3308,PAYLOAD,2022-01-21 20:00:01,15.77363444,0.0001147,53.2172,125.1275,58.6077,234.7729,-0.0053606,-0.00820796,0.0,0 STARLINK-3308,1 50846U 22001AV  22021.83334491 -.00820796  00000-0 -53606-2 0  9996,2 50846  53.2172 125.1275 0001147  58.6077 234.7729 15.77363444  3634,6716.051,91.292,338.686,337.146,0.0
50846.0,STARLINK-3308,PAYLOAD,2022-01-21 22:00:00,15.77216672,0.0001125,53.2173,124.712,52.4968,354.3432,-0.0053975,-0.00820993,0.0,0 STARLINK-3308,1 50846U 22001AV  22021.91667824 -.00820993  00000-0 -53975-2 0  9992,2 50846  53.2173 124.7120 0001125  52.4968 354.3432 15.77216672  2927,6716.468000000003,91.3,339.088,337.577,0.0
50846.0,STARLINK-3308,PAYLOAD,2022-01-22 14:00:01,15.75960089,0.000123,53.2167,121.3961,58.9303,174.0378,-0.0048511,-0.00707253,0.0,0 STARLINK-3308,1 50846U 22001AV  22022.58334491 -.00707253  00000-0 -48511-2 0  9990,2 50846  53.2167 121.3961 0001230  58.9303 174.0378 15.75960089  3032,6720.038000000001,91.373,342.7290000000001,341.076,0.0
50846.0,STARLINK-3308,PAYLOAD,2022-01-22 22:00:00,15.75459449,0.0001048,53.2175,119.7401,66.4465,258.4653,-0.0058391,-0.00821323,0.0,0 STARLINK-3308,1 50846U 22001AV  22022.91667824 -.00821323  00000-0 -58391-2 0  9998,2 50846  53.2175 119.7401 0001048  66.4465 258.4653 15.75459449  3802,6721.4609999999975,91.402,344.03,342.622,0.0
50846.0,STARLINK-3308,PAYLOAD,2022-01-23 14:00:01,15.74286545,0.0001696999999999,53.2174,116.4339,37.2541,109.5186,-0.0061286,-0.00819221,0.0,0 STARLINK-3308,1 50846U 22001AV  22023.58334491 -.00819221  00000-0 -61286-2 0  9994,2 50846  53.2174 116.4339 0001697  37.2541 109.5186 15.74286545  3199,6724.799,91.47,347.805,345.523,0.0
50846.0,STARLINK-3308,PAYLOAD,2022-01-23 22:00:00,15.73586895,0.000133,53.2174,114.7813,58.9658,177.7028,-0.0038373,-0.00515925,0.0,0 STARLINK-3308,1 50846U 22001AV  22023.91667824 -.00515925  00000-0 -38373-2 0  9995,2 50846  53.2174 114.7813 0001330  58.9658 177.7028 15.73586895  3259,6726.792,91.511,349.552,347.76300000000015,0.0
50846.0,STARLINK-3308,PAYLOAD,2022-01-24 06:00:02,15.73204434,0.0001447,53.2175,113.1301,47.9638,277.9327,5.1905e-06,1.08e-06,0.0,0 STARLINK-3308,1 50846U 22001AV  22024.25002315  .00000108  00000-0  51905-5 0  9990,2 50846  53.2175 113.1301 0001447  47.9638 277.9327 15.73204434  4016,6727.8830000000025,91.533,350.721,348.774,0.0
50846.0,STARLINK-3308,PAYLOAD,2022-01-25 20:15:39,15.73247254,0.0001893,53.2139,105.2361,57.6446,302.4757,-0.00027362,-0.00038925,0.0,0 STARLINK-3308,1 50846U 22001AV  22025.84420204 -.00038925  00000-0 -27362-3 0  9995,2 50846  53.2139 105.2361 0001893  57.6446 302.4757 15.73247254  4304,6727.76,91.53,350.899,348.352,0.0
50846.0,STARLINK-3308,PAYLOAD,2022-01-26 11:30:21,15.73274946,0.0001452,53.2141,102.0929,45.4797,314.6342,-4.2397e-05,-6.585e-05,0.0,0 STARLINK-3308,1 50846U 22001AV  22026.47941355 -.00006585  00000-0 -42397-4 0  9993,2 50846  53.2141 102.0929 0001452  45.4797 314.6342 15.73274946  4401,6727.682,91.529,350.523,348.57,0.0
50846.0,STARLINK-3308,PAYLOAD,2022-01-27 04:16:39,15.73259334,0.0001525,53.2142,98.6346,62.9657,297.1519,-0.00012338,-0.00017944,0.0,0 STARLINK-3308,1 50846U 22001AV  22027.17823294 -.00017944  00000-0 -12338-3 0  9994,2 50846  53.2142  98.6346 0001525  62.9657 297.1519 15.73259334  4512,6727.726,91.53,350.617,348.565,0.0
50846.0,STARLINK-3308,PAYLOAD,2022-01-27 08:51:07,15.73253873,0.0002403,53.2142,97.6943,23.2829,336.8299,-6.2213e-05,-9.365e-05,0.0,0 STARLINK-3308,1 50846U 22001AV  22027.36883761 -.00009365  00000-0 -62213-4 0  9996,2 50846  53.2142  97.6943 0002403  23.2829 336.8299 15.73253873  3260,6727.7419999999975,91.53,351.223,347.99,0.0
50846.0,STARLINK-3308,PAYLOAD,2022-01-27 19:31:34,15.73214429,0.0001276,53.2159,95.4909,47.9919,312.1209,2.8351e-05,3.363e-05,0.0,0 STARLINK-3308,1 50846U 22001AV  22027.81359062  .00003363  00000-0  28351-4 0  9993,2 50846  53.2159  95.4909 0001276  47.9919 312.1209 15.73214429  4618,6727.854,91.532,350.57800000000015,348.861,0.0
50846.0,STARLINK-3308,PAYLOAD,2022-01-28 10:46:22,15.73206267,0.0001593,53.2154,92.3476,36.104,324.0088,0.00013562,0.0001846,0.0,0 STARLINK-3308,1 50846U 22001AV  22028.44887063  .00018460  00000-0  13562-3 0  9991,2 50846  53.2154  92.3476 0001593  36.1040 324.0088 15.73206267  4714,6727.877,91.533,350.814,348.671,0.0
50846.0,STARLINK-3308,PAYLOAD,2022-01-28 18:23:46,15.73224718,0.0001826,53.2153,90.7751,37.0304,323.0842,0.00022617,0.00031274,0.0,0 STARLINK-3308,1 50846U 22001AV  22028.76650831  .00031274  00000-0  22617-3 0  9996,2 50846  53.2153  90.7751 0001826  37.0304 323.0842 15.73224718  3484,6727.825,91.532,350.918,348.461,0.0
50846.0,STARLINK-3308,PAYLOAD,2022-01-29 03:32:39,15.73215273,0.0001767,53.2156,88.8889,32.1021,328.0106,5.252300000000001e-05,6.761e-05,0.0,0 STARLINK-3308,1 50846U 22001AV  22029.14767451  .00006761  00000-0  52523-4 0  9999,2 50846  53.2156  88.8889 0001767  32.1021 328.0106 15.73215273  4826,6727.852,91.532,350.905,348.528,0.0
50846.0,STARLINK-3308,PAYLOAD,2022-01-29 12:41:31,15.73263124,0.0001723,53.2156,87.0033,21.2751,338.8341,0.00035447,0.00049557,0.0,0 STARLINK-3308,1 50846U 22001AV  22029.52883287  .00049557  00000-0  35447-3 0  9992,2 50846  53.2156  87.0033 0001723  21.2751 338.8341 15.73263124  3602,6727.715,91.53,350.73900000000015,348.421,0.0
50846.0,STARLINK-3308,PAYLOAD,2022-01-29 17:15:57,15.73249313,0.0001889,53.2155,86.0594,31.4437,328.6696,0.00017587,0.00024185,0.0,0 STARLINK-3308,1 50846U 22001AV  22029.71941619  .00024185  00000-0  17587-3 0  9992,2 50846  53.2155  86.0594 0001889  31.4437 328.6696 15.73249313  4918,6727.755,91.53,350.89,348.349,0.0
50846.0,STARLINK-3308,PAYLOAD,2022-01-29 20:18:54,15.73257099,0.0001896,53.2154,85.4314,29.3784,330.7343,0.00026243,0.00036461,0.0,0 STARLINK-3308,1 50846U 22001AV  22029.84646908  .00036461  00000-0  26243-3 0  9998,2 50846  53.2154  85.4314 0001896  29.3784 330.7343 15.73257099  3652,6727.732,91.53,350.87300000000016,348.32199999999995,0.0
50846.0,STARLINK-3308,PAYLOAD,2022-01-30 05:27:47,15.73238404,0.0001888,53.2154,83.5448,37.6157,322.4995,9.5413e-05,0.00012812,0.0,0 STARLINK-3308,1 50846U 22001AV  22030.22763404  .00012812  00000-0  95413-4 0  9993,2 50846  53.2154  83.5448 0001888  37.6157 322.4995 15.73238404  4994,6727.786,91.531,350.921,348.38,0.0
50846.0,STARLINK-3308,PAYLOAD,2022-01-30 13:05:11,15.73222866,0.0002018,53.2152,81.9727,33.8457,326.2692,5.397600000000001e-05,6.968e-05,0.0,0 STARLINK-3308,1 50846U 22001AV  22030.54527265  .00006968  00000-0  53976-4 0  9994,2 50846  53.2152  81.9727 0002018  33.8457 326.2692 15.73222866  5049,6727.83,91.532,351.05300000000005,348.337,0.0
50846.0,STARLINK-3308,PAYLOAD,2022-01-30 20:42:35,15.73204644,0.0002074,53.215,80.4008,36.3813,323.7348,2.7399e-05,3.226e-05,0.0,0 STARLINK-3308,1 50846U 22001AV  22030.86291441  .00003226  00000-0  27399-4 0  9997,2 50846  53.2150  80.4008 0002074  36.3813 323.7348 15.73204644  3816,6727.882,91.533,351.142,348.352,0.0
50846.0,STARLINK-3308,PAYLOAD,2022-01-31 02:48:31,15.73206188,0.000193,53.2149,79.1432,30.3658,329.7474,7.6455e-05,0.00010125,0.0,0 STARLINK-3308,1 50846U 22001AV  22031.11702641  .00010125  00000-0  76455-4 0  9998,2 50846  53.2149  79.1432 0001930  30.3658 329.7474 15.73206188  5139,6727.878000000002,91.533,351.041,348.444,0.0
50846.0,STARLINK-3308,PAYLOAD,2022-01-31 11:57:23,15.73239547,0.0001997,53.2147,77.2572,29.3384,330.7748,0.00033413,0.00046615,0.0,0 STARLINK-3308,1 50846U 22001AV  22031.49819146  .00046615  00000-0  33413-3 0  9997,2 50846  53.2147  77.2572 0001997  29.3384 330.7748 15.73239547  5195,6727.781999999997,91.531,350.991,348.30400000000014,0.0
50846.0,STARLINK-3308,PAYLOAD,2022-01-31 13:28:52,15.73249708,0.0002009,53.2148,76.9425,29.5584,330.555,0.00040542,0.00056787,0.0,0 STARLINK-3308,1 50846U 22001AV  22031.56171830  .00056787  00000-0  40542-3 0  9998,2 50846  53.2148  76.9425 0002009  29.5584 330.5550 15.73249708  3926,6727.753000000002,91.53,350.97,348.267,0.0
50846.0,STARLINK-3308,PAYLOAD,2022-01-31 15:00:21,15.732572,0.0001998,53.2147,76.628,29.8016,330.3117,0.00043917,0.00061622,0.0,0 STARLINK-3308,1 50846U 22001AV  22031.62524467  .00061622  00000-0  43917-3 0  9996,2 50846  53.2147  76.6280 0001998  29.8016 330.3117 15.73257200  3934,6727.732,91.53,350.941,348.25300000000016,0.0
50846.0,STARLINK-3308,PAYLOAD,2022-02-01 03:12:11,15.73204269,0.0002123,53.2146,74.1131,30.1557,329.9585,6.5007e-06,2.91e-06,0.0,0 STARLINK-3308,1 50846U 22001AV  22032.13347151  .00000291  00000-0  65007-5 0  9997,2 50846  53.2146  74.1131 0002123  30.1557 329.9585 15.73204269  5298,6727.8830000000025,91.533,351.176,348.32,0.0
50846.0,STARLINK-3308,PAYLOAD,2022-02-01 13:52:34,15.7321274,0.0002113,53.2144,71.9124,32.8951,327.22,0.00031572,0.00043947,0.0,0 STARLINK-3308,1 50846U 22001AV  22032.57817398  .00043947  00000-0  31572-3 0  9993,2 50846  53.2144  71.9124 0002113  32.8951 327.2200 15.73212740  4083,6727.859,91.532,351.145,348.302,0.0
50846.0,STARLINK-3308,PAYLOAD,2022-02-01 16:55:32,15.73214388,0.0002221,53.2144,71.2838,33.1357,326.9802,0.00051177,0.00071869,0.0,0 STARLINK-3308,1 50846U 22001AV  22032.70523185  .00071869  00000-0  51177-3 0  9993,2 50846  53.2144  71.2838 0002221  33.1357 326.9802 15.73214388  5380,6727.854,91.532,351.213,348.225,0.0
50846.0,STARLINK-3308,PAYLOAD,2022-02-02 06:38:50,15.73227508,0.0002035,53.2142,68.4539,34.99,325.1254,0.00014829,0.00020266,0.0,0 STARLINK-3308,1 50846U 22001AV  22033.27697739  .00020266  00000-0  14829-3 0  9991,2 50846  53.2142  68.4539 0002035  34.9900 325.1254 15.73227508  5470,6727.816999999999,91.532,351.051,348.31300000000016,0.0
